0 SL-11 R/B
1 04597U 70089B   13282.47276142 -.00000050  00000-0  22355-4 0  7757
2 04597 062.9488 015.8098 0963001 008.9237 108.6564 12.94204073160080
0 SL-11 R/B
1 04597U 70089B   13283.79188743 -.00000028  00000-0  30700-4 0  7761
2 04597 062.9487 012.6073 0963099 009.0400 134.6405 12.94204434160251
0 SL-11 R/B
1 04597U 70089B   13285.79726650 -.00000011  00000-0  37283-4 0  7785
2 04597 062.9486 007.7386 0963253 009.2194 117.9674 12.94204373160519
0 SL-11 R/B
1 04597U 70089B   13286.80165528  .00000022  00000-0  50004-4 0  7797
2 04597 062.9484 005.3002 0963322 009.3089 117.5510 12.94204348160648
0 SL-11 R/B
1 04597U 70089B   13287.80647766  .00000043  00000-0  57806-4 0  7809
2 04597 062.9482 002.8606 0963395 009.3979 119.1552 12.94204583160775
0 SL-11 R/B
1 04597U 70089B   13289.17409692  .00000043  00000-0  58047-4 0  7814
2 04597 062.9479 359.5402 0963486 009.5193 011.0782 12.94205290160959
0 SL-11 R/B
1 04597U 70089B   13290.17899059  .00000029  00000-0  52561-4 0  7826
2 04597 062.9476 357.1003 0963561 009.6066 013.0155 12.94205538161087
0 SL-11 R/B
1 04597U 70089B   13291.18502529  .00000026  00000-0  51408-4 0  7838
2 04597 062.9475 354.6577 0963640 009.6938 020.2710 12.94205885161217
0 SL-11 R/B
1 04597U 70089B   13292.50953064  .00000040  00000-0  56563-4 0  7843
2 04597 062.9473 351.4418 0963732 009.8113 071.3282 12.94206056161383
0 SL-11 R/B
1 04597U 70089B   13293.75607034  .00000052  00000-0  61347-4 0  7854
2 04597 062.9471 348.4152 0963808 009.9225 119.1334 12.94206348161542
0 SL-11 R/B
1 04597U 70089B   13294.76055611  .00000063  00000-0  65399-4 0  7868
2 04597 062.9471 345.9763 0963890 010.0098 119.1763 12.94206701161677
0 SL-11 R/B
1 04597U 70089B   13296.12864579  .00000053  00000-0  61582-4 0  7871
2 04597 062.9470 342.6545 0963992 010.1305 013.3001 12.94207159161851
